#dP2019  4 30  0  0  0.00000000      96 __u+U ITR00 FIT  IAC
## 2051 172800.00000000   900.00000000 58603 0.0000000000000
+   97   C01C02C03C04C06C07C08C09C10C11C12C13C14C16E01E02E03
+        E04E05E07E08E09E11E12E13E14E15E18E19E21E24E25E26E27
+        E30E31E33E36G01G02G03G04G05G06G07G08G09G10G11G12G13
+        G14G15G16G17G18G19G20G21G22G23G24G25G26G27G28G29G30
+        G31G32J01J02J03J07R01R02R03R04R05R07R08R09R10R11R13
+        R14R15R16R17R18R19R20R21R22R23R24R26  0  0  0  0  0
++        12 12 12 12  9  9  8  9  8  8  7  8  8  9  5  5  5
++         5  5  5  5  5  5  5  5  5  4  5  5  5  5  5  5  5
++         5  5  5  5  3  3  3  4  3  3  3  3  3  3  3  3  3
++         3  3  3  3  3  3  3  3  3  3  3  3  3  3  3  3  3
++         3  3  9  9  9 15  5  5  5  5  5  5  5  5  5  5  6
++         5  5  5  5  5  6  5  5  5  5  6  9  0  0  0  0  0
%c M  cc GPS ccc cccc cccc cccc cccc ccccc ccccc ccccc ccccc
%c cc cc ccc ccc cccc cccc cccc cccc ccccc ccccc ccccc ccccc
%f  0.0000000  0.000000000  0.00000000000  0.000000000000000
%f  0.0000000  0.000000000  0.00000000000  0.000000000000000
%i    0    0    0    0      0      0      0      0         0
%i    0    0    0    0      0      0      0      0         0
/* INFORMATION & ANALYSIS CENTER (IAC) OF MCC   (RAPID DATA)
/* S/V CLOCKS ARE ALIGNED TO GPS & GLONASS TIME RESPECTIVELY
/* USING THE BROADCAST EPHEMERIS                            
/* PCV:IGS14_2045 OL/AL:FES2004  NONE     YN ORB:CoN CLK:CoN
*  2019 04 30 16 45  0.00000000
PC01 -32303.599586  27082.192677  -1013.128114    525.628821
PC02   4409.830140  41924.618880   1209.500463    188.396438
PC03 -14829.232728  39511.697708    -57.905483    230.663608
PC04 -39620.072302  14417.330543   -406.810242   -125.531534
PC06  -9448.443623  34349.535102  23162.950743    762.229053
PC07 -17305.753106  21349.874437 -31932.413647   -330.039277
PC08 -24755.769597  32368.101462  10357.650380    152.296693
PC09   1314.166131  41516.181600   8483.115177    726.925535
PC10   -435.481291  26134.587202 -32918.917691   -710.041700
PC11  -4063.406501  27467.794800   2536.842786   -127.937372
PC12 -15830.542478  10250.430016 -20480.644763    624.650746
PC13 -11829.016265  33149.242971  23097.466529   -684.425457
PC14  -6460.483018  15291.895906  22505.650470    645.173937
PC16  -5283.153357  37015.046437  19679.384879   -655.355702
PE01 -26105.667146  -8844.123123  10787.767845   -594.814411
PE02  26133.317778   8825.142078 -10757.755013     58.213525
PE03  19446.144993  17695.311410 -13579.055233   -160.981374
PE04 -17604.722146   2343.606688  23690.931259   -272.207056
PE05   9902.875178  27518.789602   4570.304365     65.135590
PE07   5366.750945 -21202.497478 -19936.696162   -178.717234
PE08  17409.449930  -2530.432655 -23794.759295   6363.797545
PE09  -5099.479309  21189.700540  20034.542485   6453.712620
PE11 -15237.238555  25338.537557   1667.284457   5701.182756
PE12 -21223.725114  12376.588362 -16522.484700   6419.074371
PE13  15205.074829 -25343.997827  -1498.978803    386.374462
PE14  -3721.001539 -27175.286893  -3032.478328   -549.085346
PE15  21117.585652 -12786.483329  16332.937037    912.051060
PE18  -7391.675629  26952.339377  -9910.684769   -647.399569
PE19 -18972.082966 -19264.129228  12052.226393     -6.732863
PE21  -8408.209893 -16017.468282  23421.466559   -531.659884
PE24 -13814.131730  13823.481594 -22242.359958   6105.512002
PE25   8335.597666  16029.355439 -23446.761704   1818.683129
PE26    453.822223 -23157.072619 -18423.122249   4622.768952
PE27  14154.818404 -13710.538305  22084.649391    479.378354
PE30  28279.740742  -3401.677892   8056.193277   4909.342576
PE31 -28360.989838   3362.430786  -7789.613141   -464.346727
PE33 -14690.055784  -7266.277788 -24641.308714   -470.402724
PE36   -362.583295  23099.434889  18519.244106    717.885214
PG01   8915.128945 -19518.805023 -15614.165086     -5.683654
PG02 -21667.312210  14558.824538  -3801.571839   -201.856656
PG03    265.382294 -16040.619337 -21220.347520    188.302841
PG04 -11102.650738 -19934.040196  13609.327346    155.418670
PG05 -19382.059140   5447.275397  17307.772280      1.032877
PG06 -21614.073793   3235.044884 -15070.778290    217.612238
PG07  -5155.051175 -14977.619458  21515.804350    -15.073754
PG08   6637.445468 -21800.729102  13503.743544   -141.850466
PG09  -8586.566503 -23844.930240   7886.536718    419.750609
PG10  24178.626828  11225.298389    845.547774     59.176250
PG11   7402.652087 -24861.172537  -6806.492676   -616.237391
PG12  -1989.341800  15368.887235 -21808.880135    246.639732
PG13 -12637.754902  14640.996024  18073.400537    -65.646734
PG14  15069.607351   2058.108051 -21468.549323    -82.406723
PG15  -4268.752784  23087.928638  11773.213199   -315.587860
PG16  18831.591482  -3638.532126  18374.780237    -36.542035
PG17 -13433.788862 -11907.958495 -19202.065648     47.289083
PG18  15808.483815 -19953.120259  -7812.626953     49.001567
PG19 -14813.862334  -2862.532187 -22152.381827   -324.553233
PG20  20047.806483  14113.342350  10296.143900    524.375781
PG21  10594.947530  11822.520827  22097.206657   -201.992014
PG22   8410.687432 -13671.326514 -20921.439365   -692.943210
PG23   -928.506435 -26069.890267  -3300.992507   -188.130651
PG24 -11181.341515  20650.964985 -12242.322957    -65.432646
PG25  11420.574355  17576.116670 -16675.837023   -751.391078
PG26  24515.347470   2239.236975  10177.377468    189.475180
PG27  12357.871290 -11715.670250  20193.989175   -120.628155
PG28 -22466.016031 -13991.830643   2052.814584    767.727853
PG29   3617.212577  26042.358842   3729.326990    212.942997
PG30 -15806.066282  -7120.685029  20187.363320    -96.025912
PG31  22619.963612  -3937.175346 -13725.224385     41.426648
PG32  15190.958882   8549.843936 -20014.629770   -108.640512
PJ01 -25565.343136  22755.447254  29712.066449   -314.377445
PJ02 -33892.623595  18623.593037 -12268.220689      2.278086
PJ03 -20299.360138  28839.131922 -18529.052331     -0.146172
PJ07 -25408.145573  33660.116364     21.827426     -0.013047
PR01 -14738.531317 -20563.712595  -3315.181179     43.113512
PR02 -17279.877346  -9626.288294  16118.934290    366.278928
PR03  -8907.678783   6470.475763  23054.292640     -5.526475
PR04   5119.207945  18964.848113  16303.349719    304.499622
PR05  15501.638908  20250.039355    932.838656     27.190715
PR07   8584.256029  -6823.610734 -22990.620739    -19.188378
PR08  -4562.512926 -18647.515440 -16735.415621     17.989771
PR09  25054.727163  -1450.753325  -4356.236874     67.207497
PR10  21507.947783  -8025.826797  11008.444834     48.791403
PR11   4861.120265 -11523.319090  22233.085319    -64.610263
PR13 -24743.019341    955.109178   6113.407866    -23.093910
PR14 -21405.150234   8389.828415 -11057.386676     38.474010
PR15  -5901.058282  11361.699594 -22046.440349    101.670085
PR16  13454.184394   7701.506830 -20320.831648      9.876052
PR17 -13409.533113  17347.633692 -13002.231707    224.352782
PR18  -7921.863717  24009.669715   3649.535499     -8.481657
PR19   1375.994354  17668.618268  18349.462911    -28.222440
PR20  11288.444723   -299.629267  22873.236909   -376.604630
PR21  13305.905547 -17834.737013  12488.431080    -45.372379
PR22   6636.905814 -23736.415350  -6300.468261    -16.934786
PR23  -4773.060380 -13502.814793 -21112.876123    225.065411
PR24 -11897.893812   2367.566376 -22466.680534   -179.925640
PR26  10419.061288   2133.625812  23196.912066     -9.437094
EOF
